*******************************************************************************
Ephemeris / WWW_USER Mon Mar 10 07:11:29 2025 Pasadena, USA      / Horizons    
*******************************************************************************
Target body name: (2018 OG)                       {source: JPL#12}
Center body name: Earth (399)                     {source: DE441}
Center-site name: Mauna Kea
*******************************************************************************
Start time      : A.D. 2019-Jan-27 04:20:00.0000 UT      
Stop  time      : A.D. 2019-Jan-27 16:48:00.0000 UT      
Step-size       : 1 minutes
*******************************************************************************
Target pole/equ : undefined
Target radii    : undefined                                                    
Center geodetic : 204.5278, 19.8260847, 4.21024   {E-lon(deg),Lat(deg),Alt(km)}
Center cylindric: 204.5278, 6006.35451, 2151.0229 {E-lon(deg),Dxy(km),Dz(km)}
Center pole/equ : ITRF93                          {East-longitude positive}
Center radii    : 6378.137, 6378.137, 6356.752 km {Equator_a, b, pole_c}       
Target primary  : Sun
Vis. interferer : MOON (R_eq= 1737.400) km        {source: DE441}
Rel. light bend : Sun                             {source: DE441}
Rel. lght bnd GM: 1.3271E+11 km^3/s^2                                          
Small-body perts: Yes                             {source: SB441-N16}
Atmos refraction: NO (AIRLESS)
RA format       : HMS
Time format     : CAL 
Calendar mode   : Mixed Julian/Gregorian
RTS-only print  : NO       
EOP file        : eop.250307.p250603                                           
EOP coverage    : DATA-BASED 1962-JAN-20 TO 2025-MAR-07. PREDICTS-> 2025-JUN-02
Units conversion: 1 au= 149597870.700 km, c= 299792.458 km/s, 1 day= 86400.0 s 
Table cut-offs 1: Elevation (-90.0deg=NO ),Airmass (>38.000=NO), Daylight (YES)
Table cut-offs 2: Solar elongation (  0.0,180.0=NO ),Local Hour Angle( 0.0=NO )
Table cut-offs 3: RA/DEC angular rate (     0.0=NO )                           
*******************************************************************************
Initial IAU76/J2000 heliocentric ecliptic osculating elements (au, days, deg.):
  EPOCH=  2458389.5 ! 2018-Sep-28.00 (TDB)         Residual RMS= .17662        
   EC= .5817218672922059   QR= .9873203561553971   TP= 2458366.942240702       
   OM= 131.0345430575832   W=  220.7633135105564   IN= 9.123860581277821       
  Equivalent ICRF heliocentric cartesian coordinates (au, au/d):
   X= 9.625437195102586E-01  Y= 3.686106454146055E-01  Z=-5.877845729655690E-03
  VX=-3.555418036941177E-03 VY= 1.979451357965206E-02 VZ= 6.659913004156397E-03
Asteroid physical parameters (km, seconds, rotational period in hours):        
   GM= n.a.                RAD= n.a.               ROTPER= n.a.                
   H= 23.6                 G= .150                 B-V= n.a.                   
                           ALBEDO= n.a.            STYP= n.a.                  
*******************************************************************************
 Date__(UT)__HR:MN     R.A._________(ICRF)_________DEC
******************************************************
$$SOE
 2019-Jan-27 04:20 C   05 04 42.683423 +14 43 55.83067
 2019-Jan-27 04:21 C   05 04 42.697229 +14 43 56.26051
 2019-Jan-27 04:22 C   05 04 42.711030 +14 43 56.69031
 2019-Jan-27 04:23 C   05 04 42.724825 +14 43 57.12008
 2019-Jan-27 04:24 C   05 04 42.738614 +14 43 57.54981
 2019-Jan-27 04:25 C   05 04 42.752399 +14 43 57.97952
 2019-Jan-27 04:26 C   05 04 42.766178 +14 43 58.40919
 2019-Jan-27 04:27 C   05 04 42.779952 +14 43 58.83883
 2019-Jan-27 04:28 C   05 04 42.793721 +14 43 59.26844
 2019-Jan-27 04:29 C   05 04 42.807484 +14 43 59.69801
 2019-Jan-27 04:30 C   05 04 42.821243 +14 44 00.12755
 2019-Jan-27 04:31 C   05 04 42.834996 +14 44 00.55706
 2019-Jan-27 04:32 C   05 04 42.848745 +14 44 00.98654
 2019-Jan-27 04:33 C   05 04 42.862488 +14 44 01.41598
 2019-Jan-27 04:34 N   05 04 42.876227 +14 44 01.84539
 2019-Jan-27 04:35 N   05 04 42.889960 +14 44 02.27476
 2019-Jan-27 04:36 N   05 04 42.903688 +14 44 02.70410
 2019-Jan-27 04:37 N   05 04 42.917412 +14 44 03.13341
 2019-Jan-27 04:38 N   05 04 42.931131 +14 44 03.56268
 2019-Jan-27 04:39 N   05 04 42.944845 +14 44 03.99192
 2019-Jan-27 04:40 N   05 04 42.958554 +14 44 04.42113
 2019-Jan-27 04:41 N   05 04 42.972258 +14 44 04.85030
 2019-Jan-27 04:42 N   05 04 42.985958 +14 44 05.27944
 2019-Jan-27 04:43 N   05 04 42.999653 +14 44 05.70854
 2019-Jan-27 04:44 N   05 04 43.013344 +14 44 06.13761
 2019-Jan-27 04:45 N   05 04 43.027029 +14 44 06.56665
 2019-Jan-27 04:46 N   05 04 43.040711 +14 44 06.99565
 2019-Jan-27 04:47 N   05 04 43.054387 +14 44 07.42462
 2019-Jan-27 04:48 N   05 04 43.068060 +14 44 07.85355
 2019-Jan-27 04:49 N   05 04 43.081727 +14 44 08.28245
 2019-Jan-27 04:50 N   05 04 43.095391 +14 44 08.71131
 2019-Jan-27 04:51 N   05 04 43.109050 +14 44 09.14014
 2019-Jan-27 04:52 N   05 04 43.122704 +14 44 09.56893
 2019-Jan-27 04:53 N   05 04 43.136354 +14 44 09.99769
 2019-Jan-27 04:54 N   05 04 43.150000 +14 44 10.42641
 2019-Jan-27 04:55 N   05 04 43.163642 +14 44 10.85509
 2019-Jan-27 04:56 N   05 04 43.177280 +14 44 11.28375
 2019-Jan-27 04:57 N   05 04 43.190913 +14 44 11.71236
 2019-Jan-27 04:58 N   05 04 43.204542 +14 44 12.14094
 2019-Jan-27 04:59 N   05 04 43.218167 +14 44 12.56949
 2019-Jan-27 05:00 N   05 04 43.231788 +14 44 12.99800
 2019-Jan-27 05:01 A   05 04 43.245405 +14 44 13.42647
 2019-Jan-27 05:02 A   05 04 43.259018 +14 44 13.85491
 2019-Jan-27 05:03 A   05 04 43.272627 +14 44 14.28331
 2019-Jan-27 05:04 A   05 04 43.286232 +14 44 14.71168
 2019-Jan-27 05:05 A   05 04 43.299834 +14 44 15.14001
 2019-Jan-27 05:06 A   05 04 43.313431 +14 44 15.56831
 2019-Jan-27 05:07 A   05 04 43.327025 +14 44 15.99656
 2019-Jan-27 05:08 A   05 04 43.340615 +14 44 16.42479
 2019-Jan-27 05:09 A   05 04 43.354201 +14 44 16.85297
 2019-Jan-27 05:10 A   05 04 43.367783 +14 44 17.28112
 2019-Jan-27 05:11 A   05 04 43.381362 +14 44 17.70923
 2019-Jan-27 05:12 A   05 04 43.394937 +14 44 18.13731
 2019-Jan-27 05:13 A   05 04 43.408509 +14 44 18.56535
 2019-Jan-27 05:14 A   05 04 43.422077 +14 44 18.99335
 2019-Jan-27 05:15 A   05 04 43.435641 +14 44 19.42132
 2019-Jan-27 05:16 A   05 04 43.449202 +14 44 19.84925
 2019-Jan-27 05:17 A   05 04 43.462760 +14 44 20.27714
 2019-Jan-27 05:18 A   05 04 43.476314 +14 44 20.70500
 2019-Jan-27 05:19 A   05 04 43.489865 +14 44 21.13282
 2019-Jan-27 05:20 A   05 04 43.503413 +14 44 21.56060
 2019-Jan-27 05:21 A   05 04 43.516957 +14 44 21.98834
 2019-Jan-27 05:22 A   05 04 43.530498 +14 44 22.41605
 2019-Jan-27 05:23 A   05 04 43.544036 +14 44 22.84372
 2019-Jan-27 05:24 A   05 04 43.557571 +14 44 23.27135
 2019-Jan-27 05:25 A   05 04 43.571102 +14 44 23.69895
 2019-Jan-27 05:26 A   05 04 43.584631 +14 44 24.12650
 2019-Jan-27 05:27     05 04 43.598156 +14 44 24.55402
 2019-Jan-27 05:28     05 04 43.611679 +14 44 24.98151
 2019-Jan-27 05:29     05 04 43.625198 +14 44 25.40895
 2019-Jan-27 05:30     05 04 43.638715 +14 44 25.83636
 2019-Jan-27 05:31     05 04 43.652229 +14 44 26.26373
 2019-Jan-27 05:32     05 04 43.665740 +14 44 26.69106
 2019-Jan-27 05:33     05 04 43.679248 +14 44 27.11835
 2019-Jan-27 05:34     05 04 43.692753 +14 44 27.54561
 2019-Jan-27 05:35     05 04 43.706256 +14 44 27.97282
 2019-Jan-27 05:36     05 04 43.719756 +14 44 28.40000
 2019-Jan-27 05:37     05 04 43.733253 +14 44 28.82714
 2019-Jan-27 05:38     05 04 43.746748 +14 44 29.25425
 2019-Jan-27 05:39     05 04 43.760240 +14 44 29.68131
 2019-Jan-27 05:40     05 04 43.773729 +14 44 30.10834
 2019-Jan-27 05:41     05 04 43.787216 +14 44 30.53533
 2019-Jan-27 05:42     05 04 43.800701 +14 44 30.96228
 2019-Jan-27 05:43     05 04 43.814183 +14 44 31.38919
 2019-Jan-27 05:44     05 04 43.827663 +14 44 31.81606
 2019-Jan-27 05:45     05 04 43.841141 +14 44 32.24289
 2019-Jan-27 05:46     05 04 43.854616 +14 44 32.66969
 2019-Jan-27 05:47     05 04 43.868089 +14 44 33.09644
 2019-Jan-27 05:48     05 04 43.881560 +14 44 33.52316
 2019-Jan-27 05:49     05 04 43.895028 +14 44 33.94984
 2019-Jan-27 05:50     05 04 43.908495 +14 44 34.37648
 2019-Jan-27 05:51     05 04 43.921959 +14 44 34.80308
 2019-Jan-27 05:52     05 04 43.935422 +14 44 35.22964
 2019-Jan-27 05:53     05 04 43.948882 +14 44 35.65617
 2019-Jan-27 05:54     05 04 43.962341 +14 44 36.08265
 2019-Jan-27 05:55     05 04 43.975797 +14 44 36.50910
 2019-Jan-27 05:56     05 04 43.989252 +14 44 36.93550
 2019-Jan-27 05:57     05 04 44.002705 +14 44 37.36187
 2019-Jan-27 05:58     05 04 44.016156 +14 44 37.78820
 2019-Jan-27 05:59     05 04 44.029605 +14 44 38.21448
 2019-Jan-27 06:00     05 04 44.043052 +14 44 38.64073
 2019-Jan-27 06:01     05 04 44.056498 +14 44 39.06694
 2019-Jan-27 06:02     05 04 44.069943 +14 44 39.49311
 2019-Jan-27 06:03     05 04 44.083385 +14 44 39.91924
 2019-Jan-27 06:04     05 04 44.096826 +14 44 40.34533
 2019-Jan-27 06:05     05 04 44.110266 +14 44 40.77139
 2019-Jan-27 06:06     05 04 44.123704 +14 44 41.19740
 2019-Jan-27 06:07     05 04 44.137141 +14 44 41.62337
 2019-Jan-27 06:08     05 04 44.150576 +14 44 42.04930
 2019-Jan-27 06:09     05 04 44.164010 +14 44 42.47520
 2019-Jan-27 06:10     05 04 44.177443 +14 44 42.90105
 2019-Jan-27 06:11     05 04 44.190874 +14 44 43.32687
 2019-Jan-27 06:12     05 04 44.204304 +14 44 43.75264
 2019-Jan-27 06:13     05 04 44.217733 +14 44 44.17837
 2019-Jan-27 06:14     05 04 44.231161 +14 44 44.60407
 2019-Jan-27 06:15     05 04 44.244588 +14 44 45.02972
 2019-Jan-27 06:16     05 04 44.258014 +14 44 45.45534
 2019-Jan-27 06:17     05 04 44.271438 +14 44 45.88091
 2019-Jan-27 06:18     05 04 44.284862 +14 44 46.30645
 2019-Jan-27 06:19     05 04 44.298285 +14 44 46.73194
 2019-Jan-27 06:20     05 04 44.311707 +14 44 47.15740
 2019-Jan-27 06:21     05 04 44.325128 +14 44 47.58281
 2019-Jan-27 06:22     05 04 44.338548 +14 44 48.00819
